[{"OBJECT_NAME":"ONEWEB-0313","OBJECT_ID":"2021-075AA","EPOCH":"2026-03-09T22:38:18.757824","MEAN_MOTION":13.17649082,"ECCENTRICITY":0.00018653,"INCLINATION":87.9154,"RA_OF_ASC_NODE":25.5878,"ARG_OF_PERICENTER":79.1307,"MEAN_ANOMALY":281.0034,"EPHEMERIS_TYPE":0,"CLASSIFICATION_TYPE":"U","NORAD_CAT_ID":49099,"ELEMENT_SET_NO":999,"REV_AT_EPOCH":22052,"BSTAR":0.0005458972,"MEAN_MOTION_DOT":2.25e-6,"MEAN_MOTION_DDOT":0},{"OBJECT_NAME":"SL-14 DEB","OBJECT_ID":"1991-056CZ","EPOCH":"2026-03-08T22:20:38.504544","MEAN_MOTION":12.99800818,"ECCENTRICITY":0.01070198,"INCLINATION":82.5347,"RA_OF_ASC_NODE":256.9477,"ARG_OF_PERICENTER":318.1704,"MEAN_ANOMALY":41.1264,"EPHEMERIS_TYPE":0,"CLASSIFICATION_TYPE":"U","NORAD_CAT_ID":45655,"ELEMENT_SET_NO":999,"REV_AT_EPOCH":28781,"BSTAR":0.00022514106,"MEAN_MOTION_DOT":8.0e-7,"MEAN_MOTION_DDOT":0}]
